{
  "type": "FeatureCollection",
  "features": [
    {
      "type": "Feature",
      "properties": {
        "norad_id": 66907,
        "name": "1998-067XT",
        "group": "last-30-days",
        "lat": -37.445947719795626,
        "lon": 122.40896424825947,
        "alt_km": 419.1625950108746,
        "timestamp": "2025-12-09T05:43:19.510920+00:00",
        "meta_object_name": "1998-067XT",
        "meta_object_id": "1998-067XT",
        "meta_epoch": "2025-12-08T19:06:53.693856",
        "meta_mean_motion": 15.50762002,
        "meta_eccentricity": 0.0004972,
        "meta_inclination": 51.6302,
        "meta_ra_of_asc_node": 161.9586,
        "meta_arg_of_pericenter": 204.3216,
        "meta_mean_anomaly": 155.7539,
        "meta_ephemeris_type": 0,
        "meta_classification_type": "U",
        "meta_norad_cat_id": 66907,
        "meta_element_set_no": 999,
        "meta_rev_at_epoch": 100,
        "meta_bstar": 0.0012614,
        "meta_mean_motion_dot": 0.00074227,
        "meta_mean_motion_ddot": 0,
        "tle_line1": "1 66907U 98067XT  25342.79645479  .00074227  00000+0  12614-2 0  9992",
        "tle_line2": "2 66907  51.6302 161.9586 0004972 204.3216 155.7539 15.50762002  1007"
      },
      "geometry": {
        "type": "Point",
        "coordinates": [
          122.40896424825947,
          -37.445947719795626
        ]
      }
    },
    {
      "type": "Feature",
      "properties": {
        "norad_id": 66908,
        "name": "1998-067XU",
        "group": "last-30-days",
        "lat": -36.76486757738789,
        "lon": 123.46588304809424,
        "alt_km": 419.19514606942266,
        "timestamp": "2025-12-09T05:43:19.510930+00:00",
        "meta_object_name": "1998-067XU",
        "meta_object_id": "1998-067XU",
        "meta_epoch": "2025-12-08T19:06:37.819584",
        "meta_mean_motion": 15.50799834,
        "meta_eccentricity": 0.0005158,
        "meta_inclination": 51.6297,
        "meta_ra_of_asc_node": 161.9574,
        "meta_arg_of_pericenter": 203.0343,
        "meta_mean_anomaly": 157.0415,
        "meta_ephemeris_type": 0,
        "meta_classification_type": "U",
        "meta_norad_cat_id": 66908,
        "meta_element_set_no": 999,
        "meta_rev_at_epoch": 100,
        "meta_bstar": 0.0012102,
        "meta_mean_motion_dot": 0.00071266,
        "meta_mean_motion_ddot": 0,
        "tle_line1": "1 66908U 98067XU  25342.79627106  .00071266  00000+0  12102-2 0  9992",
        "tle_line2": "2 66908  51.6297 161.9574 0005158 203.0343 157.0415 15.50799834  1003"
      },
      "geometry": {
        "type": "Point",
        "coordinates": [
          123.46588304809424,
          -36.76486757738789
        ]
      }
    },
    {
      "type": "Feature",
      "properties": {
        "norad_id": 66909,
        "name": "SILVERSAT",
        "group": "last-30-days",
        "lat": -36.24684419304176,
        "lon": 124.24831728149948,
        "alt_km": 418.8128839106348,
        "timestamp": "2025-12-09T05:43:19.510940+00:00",
        "meta_object_name": "SILVERSAT",
        "meta_object_id": "1998-067XV",
        "meta_epoch": "2025-12-08T17:33:40.093056",
        "meta_mean_motion": 15.50878297,
        "meta_eccentricity": 0.0005012,
        "meta_inclination": 51.6297,
        "meta_ra_of_asc_node": 162.2763,
        "meta_arg_of_pericenter": 204.4469,
        "meta_mean_anomaly": 155.6283,
        "meta_ephemeris_type": 0,
        "meta_classification_type": "U",
        "meta_norad_cat_id": 66909,
        "meta_element_set_no": 999,
        "meta_rev_at_epoch": 99,
        "meta_bstar": 0.0013404,
        "meta_mean_motion_dot": 0.00079284,
        "meta_mean_motion_ddot": 0,
        "tle_line1": "1 66909U 98067XV  25342.73171404  .00079284  00000+0  13404-2 0  9996",
        "tle_line2": "2 66909  51.6297 162.2763 0005012 204.4469 155.6283 15.50878297   996"
      },
      "geometry": {
        "type": "Point",
        "coordinates": [
          124.24831728149948,
          -36.24684419304176
        ]
      }
    },
    {
      "type": "Feature",
      "properties": {
        "norad_id": 66910,
        "name": "1998-067XW",
        "group": "last-30-days",
        "lat": -32.097653046088446,
        "lon": 129.94826192829447,
        "alt_km": 419.5262043256398,
        "timestamp": "2025-12-09T05:43:19.510953+00:00",
        "meta_object_name": "1998-067XW",
        "meta_object_id": "1998-067XW",
        "meta_epoch": "2025-12-08T19:04:55.224768",
        "meta_mean_motion": 15.51091956,
        "meta_eccentricity": 0.0005915,
        "meta_inclination": 51.6296,
        "meta_ra_of_asc_node": 161.9498,
        "meta_arg_of_pericenter": 189.2693,
        "meta_mean_anomaly": 170.8188,
        "meta_ephemeris_type": 0,
        "meta_classification_type": "U",
        "meta_norad_cat_id": 66910,
        "meta_element_set_no": 999,
        "meta_rev_at_epoch": 100,
        "meta_bstar": 0.0012166,
        "meta_mean_motion_dot": 0.00072421,
        "meta_mean_motion_ddot": 0,
        "tle_line1": "1 66910U 98067XW  25342.79508362  .00072421  00000+0  12166-2 0  9991",
        "tle_line2": "2 66910  51.6296 161.9498 0005915 189.2693 170.8188 15.51091956  1005"
      },
      "geometry": {
        "type": "Point",
        "coordinates": [
          129.94826192829447,
          -32.097653046088446
        ]
      }
    },
    {
      "type": "Feature",
      "properties": {
        "norad_id": 66911,
        "name": "1998-067XX",
        "group": "last-30-days",
        "lat": -31.056037864883496,
        "lon": 131.24697829599603,
        "alt_km": 419.0309444989198,
        "timestamp": "2025-12-09T05:43:19.510963+00:00",
        "meta_object_name": "1998-067XX",
        "meta_object_id": "1998-067XX",
        "meta_epoch": "2025-12-08T19:04:34.995936",
        "meta_mean_motion": 15.51222448,
        "meta_eccentricity": 0.0005755,
        "meta_inclination": 51.6294,
        "meta_ra_of_asc_node": 161.9483,
        "meta_arg_of_pericenter": 189.9158,
        "meta_mean_anomaly": 170.1718,
        "meta_ephemeris_type": 0,
        "meta_classification_type": "U",
        "meta_norad_cat_id": 66911,
        "meta_element_set_no": 999,
        "meta_rev_at_epoch": 99,
        "meta_bstar": 0.0014185,
        "meta_mean_motion_dot": 0.00085043,
        "meta_mean_motion_ddot": 0,
        "tle_line1": "1 66911U 98067XX  25342.79484949  .00085043  00000+0  14185-2 0  9993",
        "tle_line2": "2 66911  51.6294 161.9483 0005755 189.9158 170.1718 15.51222448   994"
      },
      "geometry": {
        "type": "Point",
        "coordinates": [
          131.24697829599603,
          -31.056037864883496
        ]
      }
    },
    {
      "type": "Feature",
      "properties": {
        "norad_id": 66912,
        "name": "1998-067XY",
        "group": "last-30-days",
        "lat": -38.82633973318615,
        "lon": 120.1546181279183,
        "alt_km": 419.73266604272794,
        "timestamp": "2025-12-09T05:43:19.510973+00:00",
        "meta_object_name": "1998-067XY",
        "meta_object_id": "1998-067XY",
        "meta_epoch": "2025-12-08T19:07:24.189600",
        "meta_mean_motion": 15.50590013,
        "meta_eccentricity": 0.0005041,
        "meta_inclination": 51.6301,
        "meta_ra_of_asc_node": 161.961,
        "meta_arg_of_pericenter": 202.8515,
        "meta_mean_anomaly": 157.2251,
        "meta_ephemeris_type": 0,
        "meta_classification_type": "U",
        "meta_norad_cat_id": 66912,
        "meta_element_set_no": 999,
        "meta_rev_at_epoch": 99,
        "meta_bstar": 0.0010397,
        "meta_mean_motion_dot": 0.00060617,
        "meta_mean_motion_ddot": 0,
        "tle_line1": "1 66912U 98067XY  25342.79680775  .00060617  00000+0  10397-2 0  9990",
        "tle_line2": "2 66912  51.6301 161.9610 0005041 202.8515 157.2251 15.50590013   999"
      },
      "geometry": {
        "type": "Point",
        "coordinates": [
          120.1546181279183,
          -38.82633973318615
        ]
      }
    },
    {
      "type": "Feature",
      "properties": {
        "norad_id": 66913,
        "name": "2025-284A",
        "group": "last-30-days",
        "lat": 8.716018536407773,
        "lon": 135.68905913231552,
        "alt_km": 513.1969451516206,
        "timestamp": "2025-12-09T05:43:19.510983+00:00",
        "meta_object_name": "2025-284A",
        "meta_object_id": "2025-284A",
        "meta_epoch": "2025-12-08T20:11:47.230368",
        "meta_mean_motion": 15.18803631,
        "meta_eccentricity": 0.0008026,
        "meta_inclination": 80.4052,
        "meta_ra_of_asc_node": 134.7059,
        "meta_arg_of_pericenter": 259.405,
        "meta_mean_anomaly": 100.6273,
        "meta_ephemeris_type": 0,
        "meta_classification_type": "U",
        "meta_norad_cat_id": 66913,
        "meta_element_set_no": 999,
        "meta_rev_at_epoch": 53,
        "meta_bstar": 0.00066264,
        "meta_mean_motion_dot": 0.00013828,
        "meta_mean_motion_ddot": 0,
        "tle_line1": "1 66913U 25284A   25342.84151887  .00013828  00000+0  66264-3 0  9992",
        "tle_line2": "2 66913  80.4052 134.7059 0008026 259.4050 100.6273 15.18803631   539"
      },
      "geometry": {
        "type": "Point",
        "coordinates": [
          135.68905913231552,
          8.716018536407773
        ]
      }
    }
  ]
}